110P/Hartley,e,11.6831,287.6563,167.6715,3.612610,0.1435398,0.31530646,54.1930,12/30.0/2015,2000,g  1.0,12.0
# From MPC 75718
111P/Helin-Roman-Crockett,e,4.2285,89.7671,1.9567,4.139079,0.1170438,0.10562304,125.7063,12/30.0/2015,2000,g  5.0,8.0
# From MPC 69910
112P/Urata-Niijima,e,24.2047,31.9097,21.3934,3.530286,0.1485899,0.58782030,136.5719,12/30.0/2015,2000,g 14.0,6.0
# From MPC 92984
113P/Spitaler,e,5.7763,14.3786,50.0732,3.684438,0.1393629,0.42484595,34.8569,12/30.0/2015,2000,g 13.5,4.0
# From MPC 82722
114P/Wiseman-Skiff,e,18.2812,271.0613,172.8724,3.543647,0.1477503,0.55485762,141.9035,12/30.0/2015,2000,g 11.5,6.0
# From MPC 76027
115P/Maury,e,11.6714,176.0493,121.0912,4.271743,0.1116340,0.51771410,172.8942,12/30.0/2015,2000,g 10.5,6.0
# From MPC 94284
116P/Wild,e,3.6086,20.9886,173.3156,3.485163,0.1514850,0.37245589,358.1034,12/30.0/2015,2000,g  2.5,10.0
# From MPC 95735
117P/Helin-Roman-Alu,e,8.6983,58.8774,222.5843,4.094916,0.1189424,0.25398070,76.5163,12/30.0/2015,2000,g  2.5,8.0
# From MPC 95735
118P/Shoemaker-Levy,e,8.5143,151.7276,302.3253,3.462844,0.1529518,0.42819066,334.0080,12/30.0/2015,2000,g 12.0,4.0
# From MPC 84628
119P/Parker-Hartley,e,5.1910,243.1905,182.1588,4.294047,0.1107653,0.29744272,70.3226,12/30.0/2015,2000,g  3.5,8.0
# From MPC 80901
120P/Mueller,e,8.8818,3.8739,29.3150,4.106468,0.1184408,0.34624770,123.2782,12/30.0/2015,2000,g 12.0,4.0
# From MPC 75718
121P/Shoemaker-Holt,e,20.1530,94.1552,11.6483,4.594835,0.1000689,0.18348093,85.0152,12/30.0/2015,2000,g  6.5,8.0
# From MPC 75718
122P/de Vico,e,85.2450,79.5875,13.0427,17.66522,0.0132747,0.96265604,97.9992,12/30.0/2015,2000,g  7.5,5.2
# From MPC 79345
123P/West-Hartley,e,15.3555,46.5195,102.9354,3.860380,0.1299448,0.44928587,212.8456,12/30.0/2015,2000,g  4.0,10.0
# From MPC 87068
124P/Mrkos,e,31.5322,0.4026,183.7625,3.318036,0.1630732,0.50401668,102.6160,12/30.0/2015,2000,g 13.5,2.8
# From MPC 94676
125P/Spacewatch,e,9.9881,153.1963,87.1398,3.125401,0.1783797,0.51283887,186.5541,12/30.0/2015,2000,g 13.0,6.0
# From MPC 66205
126P/IRAS,e,45.7768,357.8196,356.6622,5.642185,0.0735416,0.69516967,157.4551,12/30.0/2015,2000,g  6.0,8.0
# From MPC 84321
127P/Holt-Olmstead,e,14.3024,13.6496,6.7087,3.450361,0.1537826,0.36067971,347.8798,12/30.0/2015,2000,g 11.0,6.0
# From MPC 75719
128P-B/Shoemaker-Holt,e,4.3638,214.2953,210.5794,4.503570,0.1031261,0.32150055,321.0426,12/30.0/2015,2000,g  8.5,4.0
# From MPC 82322
129P/Shoemaker-Levy,e,3.4443,184.8953,308.9697,4.276834,0.1114347,0.08498180,77.0296,12/30.0/2015,2000,g 11.0,4.0
# From MPC 78188
130P/McNaught-Hughes,e,6.0327,71.7225,243.8161,3.400388,0.1571851,0.46339682,242.1526,12/30.0/2015,2000,g 10.0,6.0
# From MPC 76027
131P/Mueller,e,7.3546,214.1969,179.1620,3.678705,0.1396888,0.34275754,203.2732,12/30.0/2015,2000,g 11.0,4.0
# From MPC 92985
132P/Helin-Roman-Alu,e,5.8304,178.1658,221.3097,4.089712,0.1191694,0.53571946,69.7846,12/30.0/2015,2000,g 11.0,6.0
# From MPC 94676
133P/Elst-Pizarro,e,1.3872,160.1392,131.9757,3.159885,0.1754677,0.16064373,185.2419,12/30.0/2015,2000,g 15.4,2.0
# From MPC 89012
134P/Kowal-Vavrova,e,4.3489,202.0973,18.6300,6.239306,0.0632411,0.58787951,37.1449,12/30.0/2015,2000,g 11.5,4.0
# From MPC 92985
135P/Shoemaker-Levy,e,6.0616,213.0896,21.9863,3.803561,0.1328674,0.29548060,56.2388,12/30.0/2015,2000,g  7.0,8.0
# From MPC 84321
136P/Mueller,e,9.4161,137.4531,225.1874,4.203135,0.1143784,0.29122781,342.4667,12/30.0/2015,2000,g 11.0,4.0
# From MPC 75719
137P/Shoemaker-Levy,e,4.8503,233.0737,140.9849,4.517889,0.1026362,0.57204716,249.1452,12/30.0/2015,2000,g 11.0,4.0
# From MPC 65938
138P/Shoemaker-Levy,e,10.0843,309.3744,95.6020,3.622178,0.1429715,0.52962324,185.5108,12/30.0/2015,2000,g 15.0,6.0
# From MPC 89012
139P/Vaisala-Oterma,e,2.3326,242.2450,166.1696,4.528901,0.1022621,0.24647007,287.1298,12/30.0/2015,2000,g  9.5,4.0
# From MPC 92985
140P/Bowell-Skiff,e,3.8211,343.3941,172.9265,6.449717,0.0601718,0.69181697,8.6289,12/30.0/2015,2000,g 11.5,6.0
# From MPC 94284
141P/Machholz,e,12.8089,246.0089,149.5014,3.022112,0.1876024,0.74819743,23.8177,12/30.0/2015,2000,g 12.0,12.0
# From MPC 71683
142P/Ge-Wang,e,12.3469,176.4724,175.2242,4.949512,0.0895077,0.49959307,183.0743,12/30.0/2015,2000,g  8.5,6.0
# From MPC 94676
143P/Kowal-Mrkos,e,4.6939,245.3048,320.8223,4.294741,0.1107385,0.40984021,264.8269,12/30.0/2015,2000,g 13.5,2.0
# From MPC 84321
144P/Kushida,e,4.1146,245.4947,216.1396,3.858055,0.1300623,0.62897448,328.1405,12/30.0/2015,2000,g  8.5,8.0
# From MPC 75720
145P/Shoemaker-Levy,e,11.2605,26.8203,10.4123,4.143801,0.1168438,0.54074542,288.6108,12/30.0/2015,2000,g 13.5,4.0
# From MPC 75720
146P/Shoemaker-LINEAR,e,23.0735,53.4573,316.9874,4.039538,0.1213966,0.64598549,337.7666,12/30.0/2015,2000,g 15.0,4.0
# From MPC 75720
147P/Kushida-Muramatsu,e,2.3689,93.7310,347.0616,3.800229,0.1330422,0.27725892,352.0418,12/30.0/2015,2000,g 14.0,4.0
# From MPC 89730
148P/Anderson-LINEAR,e,3.6817,89.7681,6.6994,3.675558,0.1398682,0.53972027,27.8649,12/30.0/2015,2000,g 16.0,2.0
# From MPC 75720
149P/Mueller,e,29.7654,145.2662,43.5885,4.321675,0.1097049,0.38969034,234.4358,12/30.0/2015,2000,g  8.0,8.0
# From MPC 75720
150P/LONEOS,e,18.5069,272.4297,245.6767,3.883135,0.1288043,0.54682278,333.2157,12/30.0/2015,2000,g 13.5,4.0
# From MPC 95214
151P/Helin,e,4.7196,143.1554,216.2621,5.781135,0.0709062,0.57210024,5.8807,12/30.0/2015,2000,g 10.0,6.0
# From MPC 79346
152P/Helin-Lawrence,e,9.8698,91.8851,163.5362,4.491308,0.1035487,0.30760109,131.4519,12/30.0/2015,2000,g 11.5,4.0
# From MPC 46101
153P/Ikeya-Zhang,e,28.1120,93.4088,34.6450,51.17721,0.0026921,0.99015594,0.0000,03/22.5903/2002,2000,g  7.0,4.0
# From MPC 87068
154P/Brewington,e,17.9261,343.4340,48.3400,4.851297,0.0922396,0.67447394,68.8334,12/30.0/2015,2000,g  2.5,12.0
# From MPC 75720
155P/Shoemaker,e,6.4013,97.2671,14.7047,6.583894,0.0583418,0.72725005,277.4240,12/30.0/2015,2000,g 10.0,4.8
# From MPC 92985
156P/Russell-LINEAR,e,20.8295,38.7670,357.8957,3.593016,0.1447156,0.56024543,90.0224,12/30.0/2015,2000,g 15.5,2.0
# From MPC 95214
157P/Tritton,e,7.2850,300.0023,148.8880,3.408957,0.1565928,0.60161969,334.4207,12/30.0/2015,2000,g 10.0,4.0
# From MPC 76027
158P/Kowal-LINEAR,e,7.9067,137.2747,239.6445,4.737209,0.0955917,0.03035755,107.4098,12/30.0/2015,2000,g  9.0,4.0
# From MPC 75721
159P/LONEOS,e,23.4601,55.0472,4.8657,5.860566,0.0694696,0.38187632,299.1922,12/30.0/2015,2000,g 10.0,4.0
# From MPC 80901
160P/LINEAR,e,17.3671,335.4784,12.1504,3.727499,0.1369549,0.54378861,163.3328,12/30.0/2015,2000,g 15.5,2.0
# From MPC 75721
161P/Hartley-IRAS,e,95.5804,1.2333,46.9627,7.720151,0.0459479,0.83571779,176.7151,12/30.0/2015,2000,g  8.5,6.0
# From MPC 92985
162P/Siding Spring,e,27.7862,31.2110,356.4203,3.056454,0.1844494,0.59513480,31.5413,12/30.0/2015,2000,g 12.0,4.0
# From MPC 78188
163P/NEAT,e,12.7164,102.1101,349.8044,3.766750,0.1348199,0.45258143,182.8595,12/30.0/2015,2000,g 14.5,4.0
# From MPC 94676
164P/Christensen,e,16.2590,88.3120,325.9924,3.658687,0.1408368,0.53983315,235.5809,12/30.0/2015,2000,g 11.0,4.0
# From MPC 75721
165P/LINEAR,e,15.9043,0.5093,126.3356,17.89261,0.0130225,0.61823191,73.8834,12/30.0/2015,2000,g 11.5,2.0
# From MPC 75722
166P/NEAT,e,15.3609,64.4677,322.2118,13.90160,0.0190155,0.37980936,94.6927,12/30.0/2015,2000,g  5.5,4.0
# From MPC 75722
167P/CINEOS,e,19.1033,295.8547,343.5391,16.15373,0.0151808,0.27131221,81.7083,12/30.0/2015,2000,g  9.5,2.0
# From MPC 82322
168P/Hergenrother,e,22.0029,356.4016,13.7227,3.611881,0.1435833,0.61149879,169.9723,12/30.0/2015,2000,g 15.5,4.0
# From MPC 94676
169P/NEAT,e,11.2980,176.1189,218.0187,2.604297,0.2345138,0.76701886,160.1195,12/30.0/2015,2000,g 16.0,2.0
# From MPC 89012
170P/Christensen,e,10.1278,142.9199,225.8226,4.197708,0.1146003,0.30415448,53.6460,12/30.0/2015,2000,g 12.0,4.0
# From MPC 79024
171P/Spahr,e,21.9466,101.7130,347.2138,3.555816,0.1469925,0.50243874,196.7705,12/30.0/2015,2000,g 13.5,4.0
# From MPC 93588
172P/Yeung,e,11.2156,30.9468,208.8065,4.223951,0.1135340,0.21005843,310.3620,12/30.0/2015,2000,g 13.0,4.0
# From MPC 75722
173P/Mueller,e,16.5046,100.4743,29.5881,5.690323,0.0726104,0.26203882,201.7939,12/30.0/2015,2000,g  7.5,4.0
# From MPC 92985
174P/Echeclus,e,4.3445,173.3349,162.8921,10.68046,0.0282370,0.45537552,7.1146,12/30.0/2015,2000,g  9.4,2.0
# From MPC 84321
175P/Hergenrother,e,6.0777,123.5838,56.0468,3.429456,0.1551909,0.43259755,147.4264,12/30.0/2015,2000,g 14.0,4.0
# From MPC 88331
176P/LINEAR,e,0.2348,345.9575,35.4690,3.195092,0.1725755,0.19276057,284.3247,12/30.0/2015,2000,g 15.1,2.0
# From MPC 75723
177P/Barnard,e,31.1414,272.0170,60.6772,24.42516,0.0081648,0.95407472,27.8910,12/30.0/2015,2000,g 15.0,4.0
# From MPC 87068
178P/Hug-Bell,e,10.9691,103.4723,296.6919,3.661965,0.1406477,0.47470324,125.1844,12/30.0/2015,2000,g 13.5,4.0
# From MPC 75723
179P/Jedicke,e,19.8655,115.5694,296.3422,5.942640,0.0680354,0.30583402,200.8179,12/30.0/2015,2000,g  2.5,8.0
# From MPC 92276
180P/NEAT,e,16.8697,84.5802,94.8732,3.860028,0.1299626,0.35510191,2.2464,12/30.0/2015,2000,g 11.0,4.0
# From MPC 89012
181P/Shoemaker-Levy,e,17.0811,36.9388,334.6513,3.852095,0.1303643,0.70786791,73.9477,12/30.0/2015,2000,g 11.5,4.0
# From MPC 88331
182P/LONEOS,e,16.2397,72.8112,53.8563,2.962330,0.1933098,0.65968575,269.4166,12/30.0/2015,2000,g 18.0,4.0
# From NK 2735
183P/Korlevic-Juric,e,18.7540,5.8441,161.0505,4.486902,0.1037013,0.13660732,289.3842,12/30.0/2015,2000,g 12.5,2.0
# From MPC 86232
184P/Lovas,e,3.6826,176.4169,182.9695,3.671666,0.1400907,0.59954516,121.5363,12/30.0/2015,2000,g 13.5,4.0
# From MPC 94676
185P/Petriew,e,13.9943,214.0989,181.9277,3.100665,0.1805185,0.69867795,222.8249,12/30.0/2015,2000,g 15.0,4.0
# From MPC 75723
186P/Garradd,e,28.5130,327.3084,285.5430,4.979352,0.0887043,0.12122331,250.0594,12/30.0/2015,2000,g  7.5,4.0
# From MPC 75724
187P/LINEAR,e,13.6278,110.8369,135.2990,4.578503,0.1006048,0.15759853,269.6346,12/30.0/2015,2000,g  9.0,4.0
# From MPC 75724
